{
  "norad_id": 63492,
  "name": "HADES-ICM",
  "history": [
    {
      "epoch": "2026-03-28T16:29:08.773440Z",
      "apogee_km": 384.34867420521186,
      "perigee_km": 373.4908947993308,
      "latitude_deg": 3.236571351341631e-05,
      "longitude_deg": -84.48484255041441,
      "height_km": 380.9864753165899,
      "semi_major_axis_km": 6757.056784502271,
      "eccentricity": 0.00080344,
      "inclination_deg": 97.3907,
      "raan_deg": 348.9055,
      "arg_perigee_deg": 78.6752,
      "mean_anomaly_deg": 281.5409,
      "mean_motion_rev_day": 15.63026744
    },
    {
      "epoch": "2026-03-29T04:46:36.540192Z",
      "apogee_km": 383.50321141758104,
      "perigee_km": 372.8849614821165,
      "latitude_deg": -6.349549369209082e-05,
      "longitude_deg": 91.18009965783828,
      "height_km": 380.2745226655872,
      "semi_major_axis_km": 6756.331086449848,
      "eccentricity": 0.0007858,
      "inclination_deg": 97.391,
      "raan_deg": 349.4409,
      "arg_perigee_deg": 78.5588,
      "mean_anomaly_deg": 281.6552,
      "mean_motion_rev_day": 15.63278578
    },
    {
      "epoch": "2026-03-30T03:49:02.052192Z",
      "apogee_km": 381.9727888160651,
      "perigee_km": 371.7929738548928,
      "latitude_deg": -2.182128139620946e-05,
      "longitude_deg": 105.63175844682236,
      "height_km": 378.9412546067907,
      "semi_major_axis_km": 6755.019881335478,
      "eccentricity": 0.0007535,
      "inclination_deg": 97.3914,
      "raan_deg": 350.4451,
      "arg_perigee_deg": 77.7885,
      "mean_anomaly_deg": 282.4217,
      "mean_motion_rev_day": 15.63733768
    },
    {
      "epoch": "2026-03-30T16:06:09.698976Z",
      "apogee_km": 381.1993014917052,
      "perigee_km": 371.1038014795713,
      "latitude_deg": -2.9454148299761353e-05,
      "longitude_deg": -78.61874738585949,
      "height_km": 378.2148933310952,
      "semi_major_axis_km": 6754.288551485638,
      "eccentricity": 0.00074734,
      "inclination_deg": 97.3912,
      "raan_deg": 350.981,
      "arg_perigee_deg": 77.7368,
      "mean_anomaly_deg": 282.4727,
      "mean_motion_rev_day": 15.63987748
    },
    {
      "epoch": "2026-03-31T05:55:17.446080Z",
      "apogee_km": 380.3605015664125,
      "perigee_km": 370.405812854684,
      "latitude_deg": -9.285345985889981e-06,
      "longitude_deg": 74.1345524234811,
      "height_km": 377.4155101671438,
      "semi_major_axis_km": 6753.520157210548,
      "eccentricity": 0.000737,
      "inclination_deg": 97.3911,
      "raan_deg": 351.5841,
      "arg_perigee_deg": 77.1875,
      "mean_anomaly_deg": 283.0207,
      "mean_motion_rev_day": 15.64254674
    },
    {
      "epoch": "2026-04-01T12:37:18.288768Z",
      "apogee_km": 378.4461707878072,
      "perigee_km": 369.0178608940878,
      "latitude_deg": -4.4416688158787234e-05,
      "longitude_deg": -26.289566351546792,
      "height_km": 375.7835173365928,
      "semi_major_axis_km": 6751.869015840947,
      "eccentricity": 0.0006982,
      "inclination_deg": 97.391,
      "raan_deg": 352.9243,
      "arg_perigee_deg": 76.6765,
      "mean_anomaly_deg": 283.5272,
      "mean_motion_rev_day": 15.64828507
    },
    {
      "epoch": "2026-04-02T16:14:30.196896Z",
      "apogee_km": 376.6089910069595,
      "perigee_km": 367.3034474967635,
      "latitude_deg": 6.517987600847169e-05,
      "longitude_deg": -80.5163086755754,
      "height_km": 373.9629756801094,
      "semi_major_axis_km": 6750.093219251861,
      "eccentricity": 0.00068929,
      "inclination_deg": 97.3895,
      "raan_deg": 354.1315,
      "arg_perigee_deg": 75.9161,
      "mean_anomaly_deg": 284.2865,
      "mean_motion_rev_day": 15.65446054
    },
    {
      "epoch": "2026-04-03T16:46:55.229376Z",
      "apogee_km": 374.47994908825876,
      "perigee_km": 365.50223947162795,
      "latitude_deg": 3.5249067107264154e-06,
      "longitude_deg": -88.55593631814402,
      "height_km": 372.03940601395004,
      "semi_major_axis_km": 6748.128094279943,
      "eccentricity": 0.0006652,
      "inclination_deg": 97.3888,
      "raan_deg": 355.204,
      "arg_perigee_deg": 75.9181,
      "mean_anomaly_deg": 284.2818,
      "mean_motion_rev_day": 15.66129915
    },
    {
      "epoch": "2026-04-04T15:46:44.436864Z",
      "apogee_km": 372.4961515390951,
      "perigee_km": 363.9525595184532,
      "latitude_deg": -1.8178995859815728e-05,
      "longitude_deg": -73.44921868283285,
      "height_km": 370.31389770419446,
      "semi_major_axis_km": 6746.361355528774,
      "eccentricity": 0.0006332,
      "inclination_deg": 97.3881,
      "raan_deg": 356.2102,
      "arg_perigee_deg": 75.7358,
      "mean_anomaly_deg": 284.4605,
      "mean_motion_rev_day": 15.66745163
    },
    {
      "epoch": "2026-04-05T04:02:26.882880Z",
      "apogee_km": 371.57939247475224,
      "perigee_km": 363.32481508845467,
      "latitude_deg": 6.85694089040626e-05,
      "longitude_deg": 102.65743726029639,
      "height_km": 369.617516466871,
      "semi_major_axis_km": 6745.589103781603,
      "eccentricity": 0.00061185,
      "inclination_deg": 97.388,
      "raan_deg": 356.7473,
      "arg_perigee_deg": 76.3003,
      "mean_anomaly_deg": 283.8939,
      "mean_motion_rev_day": 15.67014218
    },
    {
      "epoch": "2026-04-05T16:18:02.047968Z",
      "apogee_km": 370.8152489273234,
      "perigee_km": 362.6000281575789,
      "latitude_deg": 2.2239767380075813e-05,
      "longitude_deg": -81.20536966512388,
      "height_km": 368.8900673043942,
      "semi_major_axis_km": 6744.84463854245,
      "eccentricity": 0.000609,
      "inclination_deg": 97.3876,
      "raan_deg": 357.2845,
      "arg_perigee_deg": 76.4715,
      "mean_anomaly_deg": 283.7224,
      "mean_motion_rev_day": 15.67273665
    },
    {
      "epoch": "2026-04-06T06:05:25.412640Z",
      "apogee_km": 369.9376880269756,
      "perigee_km": 361.8770713035119,
      "latitude_deg": -1.3725674024285291e-06,
      "longitude_deg": 71.98585144658301,
      "height_km": 368.0791753002202,
      "semi_major_axis_km": 6744.0443796652435,
      "eccentricity": 0.00059761,
      "inclination_deg": 97.3879,
      "raan_deg": 357.8894,
      "arg_perigee_deg": 76.0418,
      "mean_anomaly_deg": 284.1507,
      "mean_motion_rev_day": 15.67552636
    },
    {
      "epoch": "2026-04-07T11:11:39.166656Z",
      "apogee_km": 368.026761397914,
      "perigee_km": 360.45385805117803,
      "latitude_deg": 1.7936469437233188e-05,
      "longitude_deg": -4.490914101333034,
      "height_km": 366.48498687592894,
      "semi_major_axis_km": 6742.377309724546,
      "eccentricity": 0.00056159,
      "inclination_deg": 97.3881,
      "raan_deg": 359.1652,
      "arg_perigee_deg": 76.2366,
      "mean_anomaly_deg": 283.952,
      "mean_motion_rev_day": 15.68134044
    },
    {
      "epoch": "2026-04-08T05:34:12.515520Z",
      "apogee_km": 366.88360693849245,
      "perigee_km": 359.5261064361039,
      "latitude_deg": 2.656005213996118e-05,
      "longitude_deg": 79.92165626692298,
      "height_km": 365.48543888080894,
      "semi_major_axis_km": 6741.341856687298,
      "eccentricity": 0.0005457,
      "inclination_deg": 97.3877,
      "raan_deg": 359.9714,
      "arg_perigee_deg": 76.388,
      "mean_anomaly_deg": 283.7989,
      "mean_motion_rev_day": 15.6849535
    },
    {
      "epoch": "2026-04-09T10:39:25.684128Z",
      "apogee_km": 365.2775095576362,
      "perigee_km": 358.0955536023848,
      "latitude_deg": -1.0358701665848558e-05,
      "longitude_deg": 3.6987278789280715,
      "height_km": 364.0243204579507,
      "semi_major_axis_km": 6739.82353158001,
      "eccentricity": 0.0005328,
      "inclination_deg": 97.3872,
      "raan_deg": 1.2479,
      "arg_perigee_deg": 76.971,
      "mean_anomaly_deg": 283.2146,
      "mean_motion_rev_day": 15.69025398
    },
    {
      "epoch": "2026-04-10T05:01:21.330624Z",
      "apogee_km": 364.0422773550108,
      "perigee_km": 357.1621593878381,
      "latitude_deg": 1.207062432858638e-05,
      "longitude_deg": 88.26941993795532,
      "height_km": 362.98684381589874,
      "semi_major_axis_km": 6738.739218371425,
      "eccentricity": 0.00051049,
      "inclination_deg": 97.3873,
      "raan_deg": 2.0547,
      "arg_perigee_deg": 77.1733,
      "mean_anomaly_deg": 283.0099,
      "mean_motion_rev_day": 15.69404115
    },
    {
      "epoch": "2026-04-11T03:58:23.873376Z",
      "apogee_km": 362.58980238504137,
      "perigee_km": 356.12746607251484,
      "latitude_deg": 2.5835180637280086e-05,
      "longitude_deg": 104.07536920300592,
      "height_km": 361.82088791950264,
      "semi_major_axis_km": 6737.495634228778,
      "eccentricity": 0.00047958,
      "inclination_deg": 97.3871,
      "raan_deg": 3.0638,
      "arg_perigee_deg": 77.7188,
      "mean_anomaly_deg": 282.4611,
      "mean_motion_rev_day": 15.69838648
    },
    {
      "epoch": "2026-04-12T16:40:54.811776Z",
      "apogee_km": 360.6752260572739,
      "perigee_km": 354.5022028689964,
      "latitude_deg": 4.253238940945035e-05,
      "longitude_deg": -86.44631298828968,
      "height_km": 360.15061316390506,
      "semi_major_axis_km": 6735.725714463135,
      "eccentricity": 0.00045823,
      "inclination_deg": 97.3858,
      "raan_deg": 4.6786,
      "arg_perigee_deg": 78.9999,
      "mean_anomaly_deg": 281.1779,
      "mean_motion_rev_day": 15.70457439
    },
    {
      "epoch": "2026-04-14T11:29:31.513344Z",
      "apogee_km": 358.52050890777446,
      "perigee_km": 353.2068436541331,
      "latitude_deg": -4.582875590998478e-05,
      "longitude_deg": -8.472475870122942,
      "height_km": 358.61636391856865,
      "semi_major_axis_km": 6734.0006762809535,
      "eccentricity": 0.00039454,
      "inclination_deg": 97.3893,
      "raan_deg": 6.5635,
      "arg_perigee_deg": 81.3378,
      "mean_anomaly_deg": 278.8331,
      "mean_motion_rev_day": 15.7106093
    }
  ]
}